{
  "name": "GALILEO",
  "date": "2020-03-18 20:59:15 CET",
  "tles": [{
    "GSAT0101 (PRN E11)": [
      "1 37846U 11060A   20076.85836194 -.00000063  00000-0  00000-0 0  9995",
      "2 37846  56.5711  43.8283 0004854 329.1054  30.8469  1.70475456 52194"
    ],
    "GSAT0102 (PRN E12)": [
      "1 37847U 11060B   20076.87124359 -.00000063  00000-0  00000-0 0  9991",
      "2 37847  56.5723  43.8272 0006346 313.7161 100.1963  1.70475509 52203"
    ],
    "GSAT0103 (PRN E19)": [
      "1 38857U 12055A   20076.31404280 -.00000029  00000-0  00000+0 0  9992",
      "2 38857  54.9622 164.3450 0003518 259.2282 100.7595  1.70473675 46222"
    ],
    "GSAT0104 (PRN E20)": [
      "1 38858U 12055B   20077.42154208 -.00000034  00000-0  00000-0 0  9995",
      "2 38858  54.9634 164.3142 0002349 264.5709  95.4271  1.70473628 46249"
    ],
    "GSAT0201 (PRN E18)": [
      "1 40128U 14050A   20076.15264139 -.00000118  00000-0  00000+0 0  9991",
      "2 40128  50.5786   5.0953 1663336  96.2617 282.8284  1.85518731 37888"
    ],
    "GSAT0202 (PRN E14)": [
      "1 40129U 14050B   20076.95575128 -.00000120  00000-0  00000-0 0  9997",
      "2 40129  50.6173   4.0963 1661814  97.1131 281.9626  1.85519421 38091"
    ],
    "GSAT0203 (PRN E26)": [
      "1 40544U 15017A   20077.81192342 -.00000065  00000-0  00000+0 0  9998",
      "2 40544  56.3645  43.9486 0004986 276.2621  83.6616  1.70474754 30951"
    ],
    "GSAT0204 (PRN E22)": [
      "1 40545U 15017B   20077.00683677 -.00000064  00000-0  00000-0 0  9996",
      "2 40545  56.3689  43.9863 0002535 268.7132  91.2389  1.70475117 30945"
    ],
    "GSAT0205 (PRN E24)": [
      "1 40889U 15045A   20077.25035341  .00000010  00000-0  00000-0 0  9994",
      "2 40889  56.2253 284.6354 0005251  26.6645 333.3884  1.70474950 28096"
    ],
    "GSAT0206 (PRN E30)": [
      "1 40890U 15045B   20076.88336622  .00000009  00000-0  00000-0 0  9998",
      "2 40890  56.2242 284.6421 0003470  27.4380 332.6052  1.70475015 28112"
    ],
    "GSAT0209 (PRN E09)": [
      "1 41174U 15079A   20076.46877266 -.00000030  00000-0  00000+0 0  9993",
      "2 41174  54.9771 164.0374 0004457 306.6470  53.3395  1.70473728 26424"
    ],
    "GSAT0208 (PRN E08)": [
      "1 41175U 15079B   20077.27512497 -.00000033  00000-0  00000+0 0  9999",
      "2 41175  54.9762 164.0160 0003660 306.8194  53.1726  1.70473942 26444"
    ],
    "GSAT0211 (PRN E02)": [
      "1 41549U 16030A   20076.81084197  .00000009  00000-0  00000-0 0  9995",
      "2 41549  56.3665 284.4911 0003239 351.7909   8.2285  1.70474669 23741"
    ],
    "GSAT0210 (PRN E01)": [
      "1 41550U 16030B   20076.51724365  .00000009  00000-0  00000+0 0  9991",
      "2 41550  56.3667 284.5006 0001594 327.7306  32.2836  1.70474774 23710"
    ],
    "GSAT0207 (PRN E07)": [
      "1 41859U 16069A   20077.34831979 -.00000034  00000-0  00000+0 0  9996",
      "2 41859  54.6351 164.3991 0004356 292.3638  67.6147  1.70473851 20714"
    ],
    "GSAT0212 (PRN E03)": [
      "1 41860U 16069B   20077.20176672 -.00000034  00000-0  00000+0 0  9995",
      "2 41860  54.6331 164.4021 0003299 315.3426  44.6557  1.70473846 20731"
    ],
    "GSAT0213 (PRN E04)": [
      "1 41861U 16069C   20076.39450155 -.00000030  00000-0  00000+0 0  9992",
      "2 41861  54.6353 164.4284 0003625 268.9729  91.0124  1.70473850 20729"
    ],
    "GSAT0214 (PRN E05)": [
      "1 41862U 16069D   20077.12806570 -.00000033  00000-0  00000-0 0  9995",
      "2 41862  54.6335 164.4037 0002847 274.3375  85.6549  1.70474026 20725"
    ],
    "GSAT0215 (PRN E21)": [
      "1 43055U 17079A   20076.44456482  .00000009  00000-0  00000+0 0  9991",
      "2 43055  56.3416 284.3463 0001020 346.7228  13.2981  1.70473931 14058"
    ],
    "GSAT0216 (PRN E25)": [
      "1 43056U 17079B   20076.73739326  .00000009  00000-0  00000-0 0  9996",
      "2 43056  56.3419 284.3378 0002405 297.0742  62.9255  1.70474053 14044"
    ],
    "GSAT0217 (PRN E27)": [
      "1 43057U 17079C   20076.95742910  .00000010  00000-0  00000-0 0  9996",
      "2 43057  56.3400 284.3325 0002464 320.1366  39.8701  1.70474004 14069"
    ],
    "GSAT0218 (PRN E31)": [
      "1 43058U 17079D   20077.17740034  .00000010  00000-0  00000-0 0  9997",
      "2 43058  56.3397 284.3238 0002704 286.6735  73.3221  1.70474032 14095"
    ],
    "GSAT0221 (PRN E15)": [
      "1 43564U 18060A   20077.07728163 -.00000064  00000-0  00000+0 0  9997",
      "2 43564  56.7532  43.5719 0006084 286.4117  73.5020  1.70475743 10251"
    ],
    "GSAT0222 (PRN E33)": [
      "1 43565U 18060B   20077.88372046 -.00000065  00000-0  00000+0 0  9993",
      "2 43565  56.7557  43.5491 0005965 293.0760  66.8410  1.70475794 10301"
    ],
    "GSAT0219 (PRN E36)": [
      "1 43566U 18060C   20076.93075852 -.00000064  00000-0  00000-0 0  9994",
      "2 43566  56.7556  43.5768 0005585 289.8972  70.0233  1.70475628 10265"
    ],
    "GSAT0220 (PRN E13)": [
      "1 43567U 18060D   20077.15064343 -.00000064  00000-0  00000-0 0  9993",
      "2 43567  56.7561  43.5706 0005662 290.4165  69.5033  1.70475704 10257"
    ]
  }]
}
